FENGYUN 1C DEB          
1 30218U 99025WB  17346.48210572  .00000931  00000-0  54544-3 0  9997
2 30218  99.1437 353.1745 0091007 221.6493 299.0655 14.08756265558144
